QIANFAN-60              
1 62790U 25016F   25352.55701895  .00000041  00000+0  44458-4 0  9998
2 62790  88.9762 102.4749 0014426 330.9639  29.0708 13.50985059 48017
QIANFAN-61              
1 62791U 25016G   25352.58982082  .00000142  00000+0  20163-3 0  9999
2 62791  88.9829 102.6384 0013415 330.5589  29.4805 13.50981946 48031
QIANFAN-62              
1 62792U 25016H   25352.59394904  .00000154  00000+0  21973-3 0  9994
2 62792  88.9776 102.5032 0014785 330.5089  29.5227 13.50978494 48020
QIANFAN-63              
1 62793U 25016J   25352.54456963  .00000144  00000+0  20465-3 0  9998
2 62793  88.9783 102.4603 0014968 336.4146  23.6317 13.50985221 48058
QIANFAN-64              
1 62794U 25016K   25352.58569710  .00000142  00000+0  20154-3 0  9991
2 62794  88.9769 102.4293 0012753 329.3060  30.7344 13.50980271 48053
QIANFAN-65              
1 62795U 25016L   25352.58157928  .00000141  00000+0  19950-3 0  9997
2 62795  88.9766 102.4556 0012626 331.3558  28.6898 13.50985968 48033
QIANFAN-66              
1 62796U 25016M   25352.53632689  .00000143  00000+0  20298-3 0  9994
2 62796  88.9785 102.4315 0013653 326.1596  33.8683 13.50978752 48070
QIANFAN-67              
1 62797U 25016N   25352.54056159  .00000138  00000+0  19460-3 0  9991
2 62797  88.9776 102.4561 0013761 333.7261  26.3191 13.50982915 48041
QIANFAN-68              
1 62798U 25016P   25352.60631033  .00000159  00000+0  22705-3 0  9998
2 62798  88.9779 102.4947 0013773 331.5575  28.4823 13.50985354 48034
QIANFAN-69              
1 62799U 25016Q   25352.54872720  .00000141  00000+0  19960-3 0  9992
2 62799  88.9758 102.3688 0014546 332.7451  27.2936 13.50988097 48060
QIANFAN-70              
1 62800U 25016R   25352.56519150  .00000153  00000+0  21791-3 0  9990
2 62800  88.9779 102.5068 0013975 322.2634  37.7536 13.50978993 48024
QIANFAN-71              
1 62801U 25016S   25352.56099919  .00000149  00000+0  21172-3 0  9995
2 62801  88.9773 102.4864 0014549 336.5475  23.5011 13.50986030 48023
QIANFAN-72              
1 62802U 25016T   25352.57746883  .00000143  00000+0  20234-3 0  9998
2 62802  88.9763 102.4975 0017974 343.2772  16.7785 13.50986067 48017
QIANFAN-73              
1 63159U 25046A   25352.60460021  .00000103  00000+0  14026-3 0  9996
2 63159  88.9765 319.4154 0016778 104.0607 256.2411 13.50978487 48200
QIANFAN-74              
1 63160U 25046B   25352.58798058  .00000090  00000+0  12151-3 0  9991
2 63160  88.9766 319.3058 0002019  75.8780 284.2595 13.50975310 48267
QIANFAN-75              
1 63161U 25046C   25352.57527416  .00000141  00000+0  19881-3 0  9993
2 63161  88.9767 319.5408 0017853 106.9329 253.3781 13.50980334 48139
QIANFAN-76              
1 63162U 25046D   25352.57192085  .00000069  00000+0  88282-4 0  9995
2 63162  88.9766 319.5218 0015397 106.9821 253.3019 13.50977897 48141
QIANFAN-77              
1 63163U 25046E   25352.56292099  .00000293  00000+0  20360-3 0  9992
2 63163  88.9767 317.4819 0016953  65.0065 295.2871 13.96092298 49269
QIANFAN-78              
1 63164U 25046F   25352.53873809  .00000108  00000+0  14850-3 0  9996
2 63164  88.9765 319.3891 0016729 109.3894 250.9067 13.50978763 48211
QIANFAN-79              
1 63165U 25046G   25352.56739265  .00000107  00000+0  14707-3 0  9997
2 63165  88.9769 319.4939 0016449 107.6909 252.6040 13.50980422 48166
QIANFAN-80              
1 63166U 25046H   25352.58391968  .00000120  00000+0  16689-3 0  9990
2 63166  88.9767 319.1989 0015356 111.1874 249.0920 13.50978334 48328
QIANFAN-81              
1 63167U 25046J   25352.56220433  .00000126  00000+0  17565-3 0  9997
2 63167  88.9767 319.2691 0016547 101.1632 259.1381 13.51004150 48278
QIANFAN-82              
1 63168U 25046K   25352.59637007  .00000105  00000+0  14445-3 0  9991
2 63168  88.9767 319.3095 0014573 107.6406 252.6338 13.50977364 48269
QIANFAN-83              
1 63169U 25046L   25352.57624977  .00000133  00000+0  15601-3 0  9998
2 63169  88.9767 319.0765 0016101  94.7641 265.5355 13.61976260 48399
QIANFAN-84              
1 63170U 25046M   25352.55006377  .00000081  00000+0  10574-3 0  9992
2 63170  88.9766 319.4469 0017593 105.3135 254.9963 13.50987992 48184
QIANFAN-85              
1 63171U 25046N   25352.54686589  .00000129  00000+0  18144-3 0  9995
2 63171  88.9766 319.3190 0014944 106.7740 253.5052 13.50978146 48252
QIANFAN-86              
1 63172U 25046P   25352.55519409  .00000115  00000+0  15951-3 0  9991
2 63172  88.9768 319.1804 0012761 109.8527 250.4001 13.50977855 48332
QIANFAN-87              
1 63173U 25046Q   25352.60059709  .00000111  00000+0  15322-3 0  9998
2 63173  88.9764 319.2872 0013485 105.9270 254.3369 13.50975642 48276
QIANFAN-88              
1 63174U 25046R   25352.54283487  .00000122  00000+0  16997-3 0  9995
2 63174  88.9767 319.2478 0013752 113.1916 247.0685 13.50982215 48293
QIANFAN-89              
1 63175U 25046S   25352.57972614  .00000127  00000+0  17837-3 0  9995
2 63175  88.9767 319.4330 0018260 105.6396 254.6772 13.50978030 48190
QIANFAN-90              
1 63176U 25046T   25352.60846255  .00000109  00000+0  14982-3 0  9999
2 63176  88.9766 319.4024 0015226 103.4896 256.7953 13.50978460 48214
QIANFAN-91              
1 66033U 25233A   25352.48302308  .00000047  00000+0  37265-4 0  9995
2 66033  88.9952  61.5512 0017478  29.6697 330.5454 13.72626316  8769
QIANFAN-92              
1 66034U 25233B   25352.10012530 -.02086187  00000+0 -24850+1 0  9995
2 66034  88.9940  61.5865 0015874  27.4465 332.7533 13.71486025  8712
QIANFAN-93              
1 66035U 25233C   25352.12374388 -.02095390  00000+0 -25512+1 0  9992
2 66035  88.9953  61.5909 0017880  29.7926 330.4250 13.70155779  8711
QIANFAN-94              
1 66036U 25233D   25352.14550100 -.01890546  00000+0 -21741+1 0  9998
2 66036  88.9953  61.5758 0011740  34.8938 325.2994 13.73931182  8724
QIANFAN-95              
1 66037U 25233E   25352.13241232  .00000103  00000+0  46921-4 0  9991
2 66037  88.9958  61.4452 0014689  29.4113 330.7897 14.13522018  8799
QIANFAN-96              
1 66038U 25233F   25352.22395609  .00000046  00000+0  34861-4 0  9996
2 66038  88.9957  61.5869 0016696  31.8409 328.3761 13.74047855  8720
QIANFAN-97              
1 66039U 25233G   25352.46985494  .00000027  00000+0  15152-4 0  9991
2 66039  88.9956  61.5500 0016860  34.0829 326.1415 13.75278872  8768
QIANFAN-98              
1 66040U 25233H   25352.60183305  .00000060  00000+0  36048-4 0  9994
2 66040  88.9955  61.4591 0015611  28.3535 331.8486 13.92094742  8820
QIANFAN-99              
1 66041U 25233J   25352.55120082  .00000052  00000+0  42271-4 0  9998
2 66041  88.9957  61.5436 0016535  29.4757 330.7336 13.73599993  8779
QIANFAN-100             
1 66042U 25233K   25352.58203514  .00000055  00000+0  37562-4 0  9994
2 66042  88.9959  61.4749 0016602  33.1226 327.0980 13.83720604  8811
QIANFAN-101             
1 66043U 25233L   25352.62794446  .00000258  00000+0  10071-3 0  9999
2 66043  88.9957  61.3521 0015370  24.5987 335.5937 14.26679497  8880
QIANFAN-102             
1 66044U 25233M   25352.11597834 -.02104672  00000+0 -23666+1 0  9996
2 66044  88.9952  61.5719 0009576  41.2618 318.9268 13.75054461  8721
QIANFAN-103             
1 66045U 25233N   25352.12584045 -.02078745  00000+0 -24626+1 0  9996
2 66045  88.9953  61.5914 0014117  28.2087 331.9838 13.71816896  8713
QIANFAN-104             
1 66046U 25233P   25352.12744867 -.02079920  00000+0 -23434+1 0  9999
2 66046  88.9954  61.5736 0009322  41.0348 319.1516 13.74886196  8727
QIANFAN-105             
1 66047U 25233Q   25352.15050170 -.02097593  00000+0 -17527+1 0  9992
2 66047  88.9953  61.5422 0017367  33.3508 326.8757 13.92524987  8740
QIANFAN-106             
1 66048U 25233R   25352.00469511 -.02032912  00000+0 -23095+1 0  9991
2 66048  88.9944  61.5905 0013730  12.5563 347.5941 13.74265889  8701
QIANFAN-107             
1 66049U 25233S   25352.58660950  .00000048  00000+0  37448-4 0  9997
2 66049  88.9958  61.5310 0015788  31.1062 329.1034 13.74652418  8788
QIANFAN-108             
1 66050U 25233T   25352.14728118 -.02057537  00000+0 -23587+1 0  9996
2 66050  88.9945  61.5761 0010967  31.5340 328.6479 13.73784131  8721
